QIANFAN-25              
1 61558U 24185G   25288.85748718  .00000716  00000+0  43001-3 0  9992
2 61558  88.9759  84.7348 0010321 121.1538 239.0657 14.05824903 61370
QIANFAN-26              
1 61559U 24185H   25288.86690887  .00000406  00000+0  39352-3 0  9997
2 61559  88.9757  85.9926 0005871 168.2752 191.8552 13.77762788 60703
QIANFAN-27              
1 61560U 24185J   25288.83911716  .00000854  00000+0  34365-3 0  9999
2 61560  88.9756  83.7273 0009955 114.1613 246.0623 14.27219505 61903
QIANFAN-28              
1 61561U 24185K   25288.84827432  .00001278  00000+0  51114-3 0  9994
2 61561  88.9772  83.7248 0009079 113.6558 246.5590 14.27848920 61911
QIANFAN-29              
1 61562U 24185L   25288.82137325  .00000254  00000+0  37549-3 0  9997
2 61562  88.9733  87.2916 0009177 210.1112 149.9512 13.50981067 59976
QIANFAN-30              
1 61563U 24185M   25288.82652150  .00000267  00000+0  40103-3 0  9990
2 61563  88.9753  86.7942 0007131 190.2755 169.8251 13.49958548 60251
QIANFAN-31              
1 61564U 24185N   25288.84008392  .00000296  00000+0  39315-3 0  9991
2 61564  88.9738  86.6864 0006869 185.8374 174.2702 13.57931741 60303
QIANFAN-32              
1 61565U 24185P   25288.82700851  .00000236  00000+0  34892-3 0  9998
2 61565  88.9796  86.9108 0008158 221.7488 138.3042 13.50709886 60226
